[{"OBJECT_NAME":"OBJECT AD","OBJECT_ID":"2023-085AD","EPOCH":"2026-03-09T21:41:29.115744","MEAN_MOTION":15.31779154,"ECCENTRICITY":0.00101154,"INCLINATION":97.4841,"RA_OF_ASC_NODE":180.2223,"ARG_OF_PERICENTER":77.5993,"MEAN_ANOMALY":282.638,"EPHEMERIS_TYPE":0,"CLASSIFICATION_TYPE":"U","NORAD_CAT_ID":57031,"ELEMENT_SET_NO":999,"REV_AT_EPOCH":15156,"BSTAR":0.00068352515,"MEAN_MOTION_DOT":0.00020961,"MEAN_MOTION_DDOT":0},{"OBJECT_NAME":"STARLINK-34934","OBJECT_ID":"2025-224R","EPOCH":"2026-03-09T06:41:56.567616","MEAN_MOTION":15.30192145,"ECCENTRICITY":0.00014124,"INCLINATION":53.1605,"RA_OF_ASC_NODE":13.0952,"ARG_OF_PERICENTER":84.2251,"MEAN_ANOMALY":275.8911,"EPHEMERIS_TYPE":0,"CLASSIFICATION_TYPE":"U","NORAD_CAT_ID":65897,"ELEMENT_SET_NO":999,"REV_AT_EPOCH":2476,"BSTAR":0.00081097584,"MEAN_MOTION_DOT":0.00023731,"MEAN_MOTION_DDOT":0}]
